STARLINK-36972          
1 68072U 26042D   26082.91911672  .00409313  00000+0  19659-2 0  9992
2 68072  53.1575 123.4487 0002729  28.2680 331.8491 15.81035542  4339
STARLINK-37074          
1 68073U 26042E   26082.91762238  .00312702  00000+0  15273-2 0  9998
2 68073  53.1574 123.4383 0000858 138.2922 221.8166 15.80927758  4331
STARLINK-37045          
1 68074U 26042F   26082.91667824  .00079390  00000+0  51740-3 0  9997
2 68074  53.1589 123.5564 0001655  93.5088 205.0133 15.75230410  4336
STARLINK-37026          
1 68075U 26042G   26082.93692995  .00180434  00000+0  11549-2 0  9991
2 68075  53.1571 123.5652 0000713 110.5892 249.5205 15.75266975  4331
STARLINK-37023          
1 68076U 26042H   26082.93174218  .00405296  00000+0  25122-2 0  9993
2 68076  53.1573 123.5307 0001340  93.8186 266.2987 15.75341408  4335
STARLINK-37036          
1 68077U 26042J   26082.93207237  .00449787  00000+0  27710-2 0  9990
2 68077  53.1570 123.5326 0002174 147.8384 212.2770 15.75356176  4339
STARLINK-36973          
1 68078U 26042K   26082.91312469  .00341889  00000+0  16642-2 0  9999
2 68078  53.1575 123.4077 0001018  38.3693 321.7402 15.80923304  4337
STARLINK-37063          
1 68079U 26042L   26082.91387122  .00298419  00000+0  14602-2 0  9992
2 68079  53.1574 123.4129 0000552  78.8713 281.2371 15.80926371  4331
STARLINK-37051          
1 68080U 26042M   26082.91162431  .00395609  00000+0  19118-2 0  9994
2 68080  53.1579 123.3975 0000812 132.5374 227.5717 15.80936763  4339
STARLINK-37066          
1 68081U 26042N   26082.91667824  .00176811  00000+0  11358-2 0  9991
2 68081  53.1595 123.4993 0001562  81.4818 244.6479 15.75194169  4332
STARLINK-37054          
1 68082U 26042P   26082.91087001  .00532068  00000+0  25205-2 0  9991
2 68082  53.1575 123.3923 0000609  51.0939 309.0138 15.81009846  4333
STARLINK-37065          
1 68083U 26042Q   26082.92720158  .00393166  00000+0  24397-2 0  9995
2 68083  53.1580 123.5000 0000803 136.7114 223.3969 15.75349762  4337
