CCSDS_OMM_VERS = 2.0
CREATION_DATE  = 
ORIGINATOR     = 

OBJECT_NAME    = STARLINK-36972
OBJECT_ID      = 2026-042D
CENTER_NAME    = EARTH
REF_FRAME      = TEME
TIME_SYSTEM    = UTC
MEAN_ELEMENT_THEORY = SGP/SGP4

EPOCH          = 2026-03-23T22:03:31.684608
MEAN_MOTION    = 15.81035542
ECCENTRICITY   = .00027295
INCLINATION    = 53.1575
RA_OF_ASC_NODE = 123.4487
ARG_OF_PERICENTER = 28.2680
MEAN_ANOMALY   = 331.8491

EPHEMERIS_TYPE = 0
CLASSIFICATION_TYPE = U
NORAD_CAT_ID   = 68072
ELEMENT_SET_NO = 999
REV_AT_EPOCH   = 433
BSTAR          = .19658665E-2
MEAN_MOTION_DOT = .409313E-2
MEAN_MOTION_DDOT = 0

CCSDS_OMM_VERS = 2.0
CREATION_DATE  = 
ORIGINATOR     = 

OBJECT_NAME    = STARLINK-37074
OBJECT_ID      = 2026-042E
CENTER_NAME    = EARTH
REF_FRAME      = TEME
TIME_SYSTEM    = UTC
MEAN_ELEMENT_THEORY = SGP/SGP4

EPOCH          = 2026-03-23T22:01:22.573632
MEAN_MOTION    = 15.80927758
ECCENTRICITY   = .00008581
INCLINATION    = 53.1574
RA_OF_ASC_NODE = 123.4383
ARG_OF_PERICENTER = 138.2922
MEAN_ANOMALY   = 221.8166

EPHEMERIS_TYPE = 0
CLASSIFICATION_TYPE = U
NORAD_CAT_ID   = 68073
ELEMENT_SET_NO = 999
REV_AT_EPOCH   = 433
BSTAR          = .15272711E-2
MEAN_MOTION_DOT = .312702E-2
MEAN_MOTION_DDOT = 0

CCSDS_OMM_VERS = 2.0
CREATION_DATE  = 
ORIGINATOR     = 

OBJECT_NAME    = STARLINK-37045
OBJECT_ID      = 2026-042F
CENTER_NAME    = EARTH
REF_FRAME      = TEME
TIME_SYSTEM    = UTC
MEAN_ELEMENT_THEORY = SGP/SGP4

EPOCH          = 2026-03-23T22:00:00.999936
MEAN_MOTION    = 15.75230410
ECCENTRICITY   = .00016558
INCLINATION    = 53.1589
RA_OF_ASC_NODE = 123.5564
ARG_OF_PERICENTER = 93.5088
MEAN_ANOMALY   = 205.0133

EPHEMERIS_TYPE = 0
CLASSIFICATION_TYPE = U
NORAD_CAT_ID   = 68074
ELEMENT_SET_NO = 999
REV_AT_EPOCH   = 433
BSTAR          = .51739731E-3
MEAN_MOTION_DOT = .7939E-3
MEAN_MOTION_DDOT = 0

CCSDS_OMM_VERS = 2.0
CREATION_DATE  = 
ORIGINATOR     = 

OBJECT_NAME    = STARLINK-37026
OBJECT_ID      = 2026-042G
CENTER_NAME    = EARTH
REF_FRAME      = TEME
TIME_SYSTEM    = UTC
MEAN_ELEMENT_THEORY = SGP/SGP4

EPOCH          = 2026-03-23T22:29:10.747680
MEAN_MOTION    = 15.75266975
ECCENTRICITY   = .00007134
INCLINATION    = 53.1571
RA_OF_ASC_NODE = 123.5652
ARG_OF_PERICENTER = 110.5892
MEAN_ANOMALY   = 249.5205

EPHEMERIS_TYPE = 0
CLASSIFICATION_TYPE = U
NORAD_CAT_ID   = 68075
ELEMENT_SET_NO = 999
REV_AT_EPOCH   = 433
BSTAR          = .1154864E-2
MEAN_MOTION_DOT = .180434E-2
MEAN_MOTION_DDOT = 0

CCSDS_OMM_VERS = 2.0
CREATION_DATE  = 
ORIGINATOR     = 

OBJECT_NAME    = STARLINK-37023
OBJECT_ID      = 2026-042H
CENTER_NAME    = EARTH
REF_FRAME      = TEME
TIME_SYSTEM    = UTC
MEAN_ELEMENT_THEORY = SGP/SGP4

EPOCH          = 2026-03-23T22:21:42.524352
MEAN_MOTION    = 15.75341408
ECCENTRICITY   = .00013409
INCLINATION    = 53.1573
RA_OF_ASC_NODE = 123.5307
ARG_OF_PERICENTER = 93.8186
MEAN_ANOMALY   = 266.2987

EPHEMERIS_TYPE = 0
CLASSIFICATION_TYPE = U
NORAD_CAT_ID   = 68076
ELEMENT_SET_NO = 999
REV_AT_EPOCH   = 433
BSTAR          = .25122053E-2
MEAN_MOTION_DOT = .405296E-2
MEAN_MOTION_DDOT = 0

CCSDS_OMM_VERS = 2.0
CREATION_DATE  = 
ORIGINATOR     = 

OBJECT_NAME    = STARLINK-37036
OBJECT_ID      = 2026-042J
CENTER_NAME    = EARTH
REF_FRAME      = TEME
TIME_SYSTEM    = UTC
MEAN_ELEMENT_THEORY = SGP/SGP4

EPOCH          = 2026-03-23T22:22:11.052768
MEAN_MOTION    = 15.75356176
ECCENTRICITY   = .00021741
INCLINATION    = 53.1570
RA_OF_ASC_NODE = 123.5326
ARG_OF_PERICENTER = 147.8384
MEAN_ANOMALY   = 212.2770

EPHEMERIS_TYPE = 0
CLASSIFICATION_TYPE = U
NORAD_CAT_ID   = 68077
ELEMENT_SET_NO = 999
REV_AT_EPOCH   = 433
BSTAR          = .27710314E-2
MEAN_MOTION_DOT = .449787E-2
MEAN_MOTION_DDOT = 0

CCSDS_OMM_VERS = 2.0
CREATION_DATE  = 
ORIGINATOR     = 

OBJECT_NAME    = STARLINK-36973
OBJECT_ID      = 2026-042K
CENTER_NAME    = EARTH
REF_FRAME      = TEME
TIME_SYSTEM    = UTC
MEAN_ELEMENT_THEORY = SGP/SGP4

EPOCH          = 2026-03-23T21:54:53.973216
MEAN_MOTION    = 15.80923304
ECCENTRICITY   = .0001018
INCLINATION    = 53.1575
RA_OF_ASC_NODE = 123.4077
ARG_OF_PERICENTER = 38.3693
MEAN_ANOMALY   = 321.7402

EPHEMERIS_TYPE = 0
CLASSIFICATION_TYPE = U
NORAD_CAT_ID   = 68078
ELEMENT_SET_NO = 999
REV_AT_EPOCH   = 433
BSTAR          = .16641554E-2
MEAN_MOTION_DOT = .341889E-2
MEAN_MOTION_DDOT = 0

CCSDS_OMM_VERS = 2.0
CREATION_DATE  = 
ORIGINATOR     = 

OBJECT_NAME    = STARLINK-37063
OBJECT_ID      = 2026-042L
CENTER_NAME    = EARTH
REF_FRAME      = TEME
TIME_SYSTEM    = UTC
MEAN_ELEMENT_THEORY = SGP/SGP4

EPOCH          = 2026-03-23T21:55:58.473408
MEAN_MOTION    = 15.80926371
ECCENTRICITY   = .00005524
INCLINATION    = 53.1574
RA_OF_ASC_NODE = 123.4129
ARG_OF_PERICENTER = 78.8713
MEAN_ANOMALY   = 281.2371

EPHEMERIS_TYPE = 0
CLASSIFICATION_TYPE = U
NORAD_CAT_ID   = 68079
ELEMENT_SET_NO = 999
REV_AT_EPOCH   = 433
BSTAR          = .14601749E-2
MEAN_MOTION_DOT = .298419E-2
MEAN_MOTION_DDOT = 0

CCSDS_OMM_VERS = 2.0
CREATION_DATE  = 
ORIGINATOR     = 

OBJECT_NAME    = STARLINK-37051
OBJECT_ID      = 2026-042M
CENTER_NAME    = EARTH
REF_FRAME      = TEME
TIME_SYSTEM    = UTC
MEAN_ELEMENT_THEORY = SGP/SGP4

EPOCH          = 2026-03-23T21:52:44.340384
MEAN_MOTION    = 15.80936763
ECCENTRICITY   = .00008125
INCLINATION    = 53.1579
RA_OF_ASC_NODE = 123.3975
ARG_OF_PERICENTER = 132.5374
MEAN_ANOMALY   = 227.5717

EPHEMERIS_TYPE = 0
CLASSIFICATION_TYPE = U
NORAD_CAT_ID   = 68080
ELEMENT_SET_NO = 999
REV_AT_EPOCH   = 433
BSTAR          = .19117803E-2
MEAN_MOTION_DOT = .395609E-2
MEAN_MOTION_DDOT = 0

CCSDS_OMM_VERS = 2.0
CREATION_DATE  = 
ORIGINATOR     = 

OBJECT_NAME    = STARLINK-37066
OBJECT_ID      = 2026-042N
CENTER_NAME    = EARTH
REF_FRAME      = TEME
TIME_SYSTEM    = UTC
MEAN_ELEMENT_THEORY = SGP/SGP4

EPOCH          = 2026-03-23T22:00:00.999936
MEAN_MOTION    = 15.75194169
ECCENTRICITY   = .00015623
INCLINATION    = 53.1595
RA_OF_ASC_NODE = 123.4993
ARG_OF_PERICENTER = 81.4818
MEAN_ANOMALY   = 244.6479

EPHEMERIS_TYPE = 0
CLASSIFICATION_TYPE = U
NORAD_CAT_ID   = 68081
ELEMENT_SET_NO = 999
REV_AT_EPOCH   = 433
BSTAR          = .11358441E-2
MEAN_MOTION_DOT = .176811E-2
MEAN_MOTION_DDOT = 0

CCSDS_OMM_VERS = 2.0
CREATION_DATE  = 
ORIGINATOR     = 

OBJECT_NAME    = STARLINK-37054
OBJECT_ID      = 2026-042P
CENTER_NAME    = EARTH
REF_FRAME      = TEME
TIME_SYSTEM    = UTC
MEAN_ELEMENT_THEORY = SGP/SGP4

EPOCH          = 2026-03-23T21:51:39.168864
MEAN_MOTION    = 15.81009846
ECCENTRICITY   = .00006099
INCLINATION    = 53.1575
RA_OF_ASC_NODE = 123.3923
ARG_OF_PERICENTER = 51.0939
MEAN_ANOMALY   = 309.0138

EPHEMERIS_TYPE = 0
CLASSIFICATION_TYPE = U
NORAD_CAT_ID   = 68082
ELEMENT_SET_NO = 999
REV_AT_EPOCH   = 433
BSTAR          = .25204992E-2
MEAN_MOTION_DOT = .532068E-2
MEAN_MOTION_DDOT = 0

CCSDS_OMM_VERS = 2.0
CREATION_DATE  = 
ORIGINATOR     = 

OBJECT_NAME    = STARLINK-37065
OBJECT_ID      = 2026-042Q
CENTER_NAME    = EARTH
REF_FRAME      = TEME
TIME_SYSTEM    = UTC
MEAN_ELEMENT_THEORY = SGP/SGP4

EPOCH          = 2026-03-23T22:15:10.216512
MEAN_MOTION    = 15.75349762
ECCENTRICITY   = .0000803
INCLINATION    = 53.1580
RA_OF_ASC_NODE = 123.5000
ARG_OF_PERICENTER = 136.7114
MEAN_ANOMALY   = 223.3969

EPHEMERIS_TYPE = 0
CLASSIFICATION_TYPE = U
NORAD_CAT_ID   = 68083
ELEMENT_SET_NO = 999
REV_AT_EPOCH   = 433
BSTAR          = .2439705E-2
MEAN_MOTION_DOT = .393166E-2
MEAN_MOTION_DDOT = 0

